[{"OBJECT_NAME":"STARLINK-3733","OBJECT_ID":"2022-029BB","EPOCH":"2026-03-09T09:18:51.061536","MEAN_MOTION":15.08834872,"ECCENTRICITY":0.00012691,"INCLINATION":53.217,"RA_OF_ASC_NODE":70.4718,"ARG_OF_PERICENTER":88.4998,"MEAN_ANOMALY":271.6139,"EPHEMERIS_TYPE":0,"CLASSIFICATION_TYPE":"U","NORAD_CAT_ID":52137,"ELEMENT_SET_NO":999,"REV_AT_EPOCH":22089,"BSTAR":-7.869124e-6,"MEAN_MOTION_DOT":-4.13e-6,"MEAN_MOTION_DDOT":0},{"OBJECT_NAME":"SLS DEB","OBJECT_ID":"2022-156G","EPOCH":"2026-03-08T17:53:10.813056","MEAN_MOTION":12.40383613,"ECCENTRICITY":0.14180709,"INCLINATION":30.5405,"RA_OF_ASC_NODE":304.991,"ARG_OF_PERICENTER":67.3282,"MEAN_ANOMALY":307.0829,"EPHEMERIS_TYPE":0,"CLASSIFICATION_TYPE":"U","NORAD_CAT_ID":55907,"ELEMENT_SET_NO":999,"REV_AT_EPOCH":13507,"BSTAR":0.011881902,"MEAN_MOTION_DOT":0.00109897,"MEAN_MOTION_DDOT":0}]
